COSMOS 1933             
1 18958U 88020A   26014.85960241  .00002517  00000+0  12426-3 0  9999
2 18958  82.5153 304.1500 0005612  44.3484 315.8199 15.17450564 42067
SL-3 R/B                
1 19046U 88032B   26014.93208263  .00003143  00000+0  15143-3 0  9994
2 19046  97.5109 358.4378 0028232  63.2625 297.1494 15.19137391 43948
SL-16 R/B               
1 19120U 88039B   26014.79436337  .00000137  00000+0  87221-4 0  9990
2 19120  71.0134 182.5075 0019804  59.6170 300.6909 14.19605214950733
COSMOS 1953             
1 19210U 88050A   26014.99020450  .00003474  00000+0  12823-3 0  9992
2 19210  82.5068 212.2053 0010832 319.0436  40.9988 15.27377248 29587
SL-8 R/B                
1 19257U 88053B   26014.83395381  .00000094  00000+0  39042-4 0  9995
2 19257  74.0453 211.7257 0019372  43.6919 327.2986 14.38880032968858
COSMOS 1975             
1 19573U 88093A   26014.87916897  .00003921  00000+0  14645-3 0  9998
2 19573  82.5197 171.6393 0011698   5.8439 354.2934 15.27008659 11198
SL-14 R/B               
1 19574U 88093B   26014.58862128  .00000327  00000+0  34842-4 0  9993
2 19574  82.5311  92.8414 0019884 213.6353 267.2528 14.85591066993007
SL-16 R/B               
1 19650U 88102B   26014.93970543  .00000277  00000+0  16427-3 0  9991
2 19650  70.9989 264.5896 0011999  93.4743 266.7753 14.16143720919288
INTERCOSMOS 24          
1 20261U 89080A   26014.79118721  .00000282  00000+0  74435-4 0  9993
2 20261  82.6078 139.4684 1188983  57.8896 313.2068 12.59486623660012
SL-14 R/B               
1 20262U 89080C   26014.78634409  .00000182  00000+0  54291-4 0  9996
2 20262  82.5912 207.7995 1229765 308.0509  41.5660 12.50438327653413
DELTA 1 R/B             
1 20323U 89089B   26014.61162000  .00000266  00000+0  74743-4 0  9995
2 20323  97.0736 230.6375 0067702 294.1697  65.2433 14.50605406887894
ARIANE 40 R/B           
1 20443U 90005H   26014.40130716  .00000181  00000+0  71095-4 0  9997
2 20443  98.3195  76.6491 0010223  15.0369 345.1121 14.39825679884994
