CCSDS_OMM_VERS = 2.0
CREATION_DATE  = 
ORIGINATOR     = 

OBJECT_NAME    = COSMOS 1933
OBJECT_ID      = 1988-020A
CENTER_NAME    = EARTH
REF_FRAME      = TEME
TIME_SYSTEM    = UTC
MEAN_ELEMENT_THEORY = SGP/SGP4

EPOCH          = 2026-01-14T20:37:49.648224
MEAN_MOTION    = 15.17450564
ECCENTRICITY   = .00056128
INCLINATION    = 82.5153
RA_OF_ASC_NODE = 304.1500
ARG_OF_PERICENTER = 44.3484
MEAN_ANOMALY   = 315.8199

EPHEMERIS_TYPE = 0
CLASSIFICATION_TYPE = U
NORAD_CAT_ID   = 18958
ELEMENT_SET_NO = 999
REV_AT_EPOCH   = 4206
BSTAR          = .12425719E-3
MEAN_MOTION_DOT = .2517E-4
MEAN_MOTION_DDOT = 0

CCSDS_OMM_VERS = 2.0
CREATION_DATE  = 
ORIGINATOR     = 

OBJECT_NAME    = SL-3 R/B
OBJECT_ID      = 1988-032B
CENTER_NAME    = EARTH
REF_FRAME      = TEME
TIME_SYSTEM    = UTC
MEAN_ELEMENT_THEORY = SGP/SGP4

EPOCH          = 2026-01-14T22:22:11.939232
MEAN_MOTION    = 15.19137391
ECCENTRICITY   = .00282323
INCLINATION    = 97.5109
RA_OF_ASC_NODE = 358.4378
ARG_OF_PERICENTER = 63.2625
MEAN_ANOMALY   = 297.1494

EPHEMERIS_TYPE = 0
CLASSIFICATION_TYPE = U
NORAD_CAT_ID   = 19046
ELEMENT_SET_NO = 999
REV_AT_EPOCH   = 4394
BSTAR          = .15142643E-3
MEAN_MOTION_DOT = .3143E-4
MEAN_MOTION_DDOT = 0

CCSDS_OMM_VERS = 2.0
CREATION_DATE  = 
ORIGINATOR     = 

OBJECT_NAME    = SL-16 R/B
OBJECT_ID      = 1988-039B
CENTER_NAME    = EARTH
REF_FRAME      = TEME
TIME_SYSTEM    = UTC
MEAN_ELEMENT_THEORY = SGP/SGP4

EPOCH          = 2026-01-14T19:03:52.995168
MEAN_MOTION    = 14.19605214
ECCENTRICITY   = .0019804
INCLINATION    = 71.0134
RA_OF_ASC_NODE = 182.5075
ARG_OF_PERICENTER = 59.6170
MEAN_ANOMALY   = 300.6909

EPHEMERIS_TYPE = 0
CLASSIFICATION_TYPE = U
NORAD_CAT_ID   = 19120
ELEMENT_SET_NO = 999
REV_AT_EPOCH   = 95073
BSTAR          = .87221E-4
MEAN_MOTION_DOT = .137E-5
MEAN_MOTION_DDOT = 0

CCSDS_OMM_VERS = 2.0
CREATION_DATE  = 
ORIGINATOR     = 

OBJECT_NAME    = COSMOS 1953
OBJECT_ID      = 1988-050A
CENTER_NAME    = EARTH
REF_FRAME      = TEME
TIME_SYSTEM    = UTC
MEAN_ELEMENT_THEORY = SGP/SGP4

EPOCH          = 2026-01-14T23:45:53.668800
MEAN_MOTION    = 15.27377248
ECCENTRICITY   = .00108324
INCLINATION    = 82.5068
RA_OF_ASC_NODE = 212.2053
ARG_OF_PERICENTER = 319.0436
MEAN_ANOMALY   = 40.9988

EPHEMERIS_TYPE = 0
CLASSIFICATION_TYPE = U
NORAD_CAT_ID   = 19210
ELEMENT_SET_NO = 999
REV_AT_EPOCH   = 2958
BSTAR          = .1282328E-3
MEAN_MOTION_DOT = .3474E-4
MEAN_MOTION_DDOT = 0

CCSDS_OMM_VERS = 2.0
CREATION_DATE  = 
ORIGINATOR     = 

OBJECT_NAME    = SL-8 R/B
OBJECT_ID      = 1988-053B
CENTER_NAME    = EARTH
REF_FRAME      = TEME
TIME_SYSTEM    = UTC
MEAN_ELEMENT_THEORY = SGP/SGP4

EPOCH          = 2026-01-14T20:00:53.609184
MEAN_MOTION    = 14.38880032
ECCENTRICITY   = .0019372
INCLINATION    = 74.0453
RA_OF_ASC_NODE = 211.7257
ARG_OF_PERICENTER = 43.6919
MEAN_ANOMALY   = 327.2986

EPHEMERIS_TYPE = 0
CLASSIFICATION_TYPE = U
NORAD_CAT_ID   = 19257
ELEMENT_SET_NO = 999
REV_AT_EPOCH   = 96885
BSTAR          = .39042E-4
MEAN_MOTION_DOT = .94E-6
MEAN_MOTION_DDOT = 0

CCSDS_OMM_VERS = 2.0
CREATION_DATE  = 
ORIGINATOR     = 

OBJECT_NAME    = COSMOS 1975
OBJECT_ID      = 1988-093A
CENTER_NAME    = EARTH
REF_FRAME      = TEME
TIME_SYSTEM    = UTC
MEAN_ELEMENT_THEORY = SGP/SGP4

EPOCH          = 2026-01-14T21:06:00.199008
MEAN_MOTION    = 15.27008659
ECCENTRICITY   = .00116985
INCLINATION    = 82.5197
RA_OF_ASC_NODE = 171.6393
ARG_OF_PERICENTER = 5.8439
MEAN_ANOMALY   = 354.2934

EPHEMERIS_TYPE = 0
CLASSIFICATION_TYPE = U
NORAD_CAT_ID   = 19573
ELEMENT_SET_NO = 999
REV_AT_EPOCH   = 1119
BSTAR          = .14644832E-3
MEAN_MOTION_DOT = .3921E-4
MEAN_MOTION_DDOT = 0

CCSDS_OMM_VERS = 2.0
CREATION_DATE  = 
ORIGINATOR     = 

OBJECT_NAME    = SL-14 R/B
OBJECT_ID      = 1988-093B
CENTER_NAME    = EARTH
REF_FRAME      = TEME
TIME_SYSTEM    = UTC
MEAN_ELEMENT_THEORY = SGP/SGP4

EPOCH          = 2026-01-14T14:07:36.878592
MEAN_MOTION    = 14.85591066
ECCENTRICITY   = .0019884
INCLINATION    = 82.5311
RA_OF_ASC_NODE = 92.8414
ARG_OF_PERICENTER = 213.6353
MEAN_ANOMALY   = 267.2528

EPHEMERIS_TYPE = 0
CLASSIFICATION_TYPE = U
NORAD_CAT_ID   = 19574
ELEMENT_SET_NO = 999
REV_AT_EPOCH   = 99300
BSTAR          = .34842E-4
MEAN_MOTION_DOT = .327E-5
MEAN_MOTION_DDOT = 0

CCSDS_OMM_VERS = 2.0
CREATION_DATE  = 
ORIGINATOR     = 

OBJECT_NAME    = SL-16 R/B
OBJECT_ID      = 1988-102B
CENTER_NAME    = EARTH
REF_FRAME      = TEME
TIME_SYSTEM    = UTC
MEAN_ELEMENT_THEORY = SGP/SGP4

EPOCH          = 2026-01-14T22:33:10.549152
MEAN_MOTION    = 14.16143720
ECCENTRICITY   = .00119992
INCLINATION    = 70.9989
RA_OF_ASC_NODE = 264.5896
ARG_OF_PERICENTER = 93.4743
MEAN_ANOMALY   = 266.7753

EPHEMERIS_TYPE = 0
CLASSIFICATION_TYPE = U
NORAD_CAT_ID   = 19650
ELEMENT_SET_NO = 999
REV_AT_EPOCH   = 91928
BSTAR          = .16426594E-3
MEAN_MOTION_DOT = .277E-5
MEAN_MOTION_DDOT = 0

CCSDS_OMM_VERS = 2.0
CREATION_DATE  = 
ORIGINATOR     = 

OBJECT_NAME    = INTERCOSMOS 24
OBJECT_ID      = 1989-080A
CENTER_NAME    = EARTH
REF_FRAME      = TEME
TIME_SYSTEM    = UTC
MEAN_ELEMENT_THEORY = SGP/SGP4

EPOCH          = 2026-01-14T18:59:18.574944
MEAN_MOTION    = 12.59486623
ECCENTRICITY   = .1188983
INCLINATION    = 82.6078
RA_OF_ASC_NODE = 139.4684
ARG_OF_PERICENTER = 57.8896
MEAN_ANOMALY   = 313.2068

EPHEMERIS_TYPE = 0
CLASSIFICATION_TYPE = U
NORAD_CAT_ID   = 20261
ELEMENT_SET_NO = 999
REV_AT_EPOCH   = 66001
BSTAR          = .74435E-4
MEAN_MOTION_DOT = .282E-5
MEAN_MOTION_DDOT = 0

CCSDS_OMM_VERS = 2.0
CREATION_DATE  = 
ORIGINATOR     = 

OBJECT_NAME    = SL-14 R/B
OBJECT_ID      = 1989-080C
CENTER_NAME    = EARTH
REF_FRAME      = TEME
TIME_SYSTEM    = UTC
MEAN_ELEMENT_THEORY = SGP/SGP4

EPOCH          = 2026-01-14T18:52:20.129376
MEAN_MOTION    = 12.50438327
ECCENTRICITY   = .1229765
INCLINATION    = 82.5912
RA_OF_ASC_NODE = 207.7995
ARG_OF_PERICENTER = 308.0509
MEAN_ANOMALY   = 41.5660

EPHEMERIS_TYPE = 0
CLASSIFICATION_TYPE = U
NORAD_CAT_ID   = 20262
ELEMENT_SET_NO = 999
REV_AT_EPOCH   = 65341
BSTAR          = .54291E-4
MEAN_MOTION_DOT = .182E-5
MEAN_MOTION_DDOT = 0

CCSDS_OMM_VERS = 2.0
CREATION_DATE  = 
ORIGINATOR     = 

OBJECT_NAME    = DELTA 1 R/B
OBJECT_ID      = 1989-089B
CENTER_NAME    = EARTH
REF_FRAME      = TEME
TIME_SYSTEM    = UTC
MEAN_ELEMENT_THEORY = SGP/SGP4

EPOCH          = 2026-01-14T14:40:43.968000
MEAN_MOTION    = 14.50605406
ECCENTRICITY   = .0067702
INCLINATION    = 97.0736
RA_OF_ASC_NODE = 230.6375
ARG_OF_PERICENTER = 294.1697
MEAN_ANOMALY   = 65.2433

EPHEMERIS_TYPE = 0
CLASSIFICATION_TYPE = U
NORAD_CAT_ID   = 20323
ELEMENT_SET_NO = 999
REV_AT_EPOCH   = 88789
BSTAR          = .74743E-4
MEAN_MOTION_DOT = .266E-5
MEAN_MOTION_DDOT = 0

CCSDS_OMM_VERS = 2.0
CREATION_DATE  = 
ORIGINATOR     = 

OBJECT_NAME    = ARIANE 40 R/B
OBJECT_ID      = 1990-005H
CENTER_NAME    = EARTH
REF_FRAME      = TEME
TIME_SYSTEM    = UTC
MEAN_ELEMENT_THEORY = SGP/SGP4

EPOCH          = 2026-01-14T09:37:52.938624
MEAN_MOTION    = 14.39825679
ECCENTRICITY   = .00102233
INCLINATION    = 98.3195
RA_OF_ASC_NODE = 76.6491
ARG_OF_PERICENTER = 15.0369
MEAN_ANOMALY   = 345.1121

EPHEMERIS_TYPE = 0
CLASSIFICATION_TYPE = U
NORAD_CAT_ID   = 20443
ELEMENT_SET_NO = 999
REV_AT_EPOCH   = 88499
BSTAR          = .71095392E-4
MEAN_MOTION_DOT = .181E-5
MEAN_MOTION_DDOT = 0

